{
  "type": "FeatureCollection",
  "features": [
    {
      "type": "Feature",
      "properties": {
        "norad_id": 32212,
        "name": "FENGYUN 1C DEB",
        "group": "fengyun-1c-debris",
        "lat": 41.053559099241056,
        "lon": -72.9816656717398,
        "alt_km": 767.651664771498,
        "timestamp": "2025-12-26T06:43:29.797723+00:00",
        "meta_object_name": "FENGYUN 1C DEB",
        "meta_object_id": "1999-025CVJ",
        "meta_epoch": "2025-12-22T12:21:50.056416",
        "meta_mean_motion": 14.40349995,
        "meta_eccentricity": 0.01376106,
        "meta_inclination": 99.5728,
        "meta_ra_of_asc_node": 94.3588,
        "meta_arg_of_pericenter": 50.2821,
        "meta_mean_anomaly": 14.4282,
        "meta_ephemeris_type": 0,
        "meta_classification_type": "U",
        "meta_norad_cat_id": 32212,
        "meta_element_set_no": 999,
        "meta_rev_at_epoch": 96202,
        "meta_bstar": 0.00040041333,
        "meta_mean_motion_dot": 1.362e-05,
        "meta_mean_motion_ddot": 0,
        "tle_line1": "1 32212U 99025CVJ 25356.51516269  .00001362  00000+0  40041-3 0  9994",
        "tle_line2": "2 32212  99.5728  94.3588 0137610  50.2821  14.4282 14.40349995962023"
      },
      "geometry": {
        "type": "Point",
        "coordinates": [
          -72.9816656717398,
          41.053559099241056
        ]
      }
    },
    {
      "type": "Feature",
      "properties": {
        "norad_id": 32214,
        "name": "FENGYUN 1C DEB",
        "group": "fengyun-1c-debris",
        "lat": 66.83623495671795,
        "lon": 3.685718927094761,
        "alt_km": 862.4690989276905,
        "timestamp": "2025-12-26T06:43:29.797734+00:00",
        "meta_object_name": "FENGYUN 1C DEB",
        "meta_object_id": "1999-025CVL",
        "meta_epoch": "2025-12-24T01:00:42.312960",
        "meta_mean_motion": 13.90653385,
        "meta_eccentricity": 0.01879001,
        "meta_inclination": 99.0434,
        "meta_ra_of_asc_node": 23.36,
        "meta_arg_of_pericenter": 8.367,
        "meta_mean_anomaly": 19.8193,
        "meta_ephemeris_type": 0,
        "meta_classification_type": "U",
        "meta_norad_cat_id": 32214,
        "meta_element_set_no": 999,
        "meta_rev_at_epoch": 62579,
        "meta_bstar": 0.0037385587,
        "meta_mean_motion_dot": 5.338e-05,
        "meta_mean_motion_ddot": 0,
        "tle_line1": "1 32214U 99025CVL 25358.04215640  .00005338  00000+0  37386-2 0  9999",
        "tle_line2": "2 32214  99.0434  23.3600 0187900   8.3670  19.8193 13.90653385625799"
      },
      "geometry": {
        "type": "Point",
        "coordinates": [
          3.685718927094761,
          66.83623495671795
        ]
      }
    },
    {
      "type": "Feature",
      "properties": {
        "norad_id": 32218,
        "name": "FENGYUN 1C DEB",
        "group": "fengyun-1c-debris",
        "lat": -37.11324635474011,
        "lon": 8.146942663374556,
        "alt_km": 757.6563416509698,
        "timestamp": "2025-12-26T06:43:29.797744+00:00",
        "meta_object_name": "FENGYUN 1C DEB",
        "meta_object_id": "1999-025CVQ",
        "meta_epoch": "2025-12-24T19:10:15.688416",
        "meta_mean_motion": 14.55567968,
        "meta_eccentricity": 0.00629807,
        "meta_inclination": 98.8115,
        "meta_ra_of_asc_node": 193.3249,
        "meta_arg_of_pericenter": 31.2124,
        "meta_mean_anomaly": 348.2628,
        "meta_ephemeris_type": 0,
        "meta_classification_type": "U",
        "meta_norad_cat_id": 32218,
        "meta_element_set_no": 999,
        "meta_rev_at_epoch": 96408,
        "meta_bstar": 0.00083900696,
        "meta_mean_motion_dot": 3.704e-05,
        "meta_mean_motion_ddot": 0,
        "tle_line1": "1 32218U 99025CVQ 25358.79879269  .00003704  00000+0  83901-3 0  9998",
        "tle_line2": "2 32218  98.8115 193.3249 0062980  31.2124 348.2628 14.55567968964085"
      },
      "geometry": {
        "type": "Point",
        "coordinates": [
          8.146942663374556,
          -37.11324635474011
        ]
      }
    },
    {
      "type": "Feature",
      "properties": {
        "norad_id": 32221,
        "name": "FENGYUN 1C DEB",
        "group": "fengyun-1c-debris",
        "lat": -78.12473722085619,
        "lon": -75.1693569825331,
        "alt_km": 800.5257071591095,
        "timestamp": "2025-12-26T06:43:29.797754+00:00",
        "meta_object_name": "FENGYUN 1C DEB",
        "meta_object_id": "1999-025CVT",
        "meta_epoch": "2025-12-25T03:11:58.276032",
        "meta_mean_motion": 14.58742208,
        "meta_eccentricity": 0.0147149,
        "meta_inclination": 98.5667,
        "meta_ra_of_asc_node": 149.4431,
        "meta_arg_of_pericenter": 107.7631,
        "meta_mean_anomaly": 253.9687,
        "meta_ephemeris_type": 0,
        "meta_classification_type": "U",
        "meta_norad_cat_id": 32221,
        "meta_element_set_no": 999,
        "meta_rev_at_epoch": 97378,
        "meta_bstar": 0.00030621,
        "meta_mean_motion_dot": 1.605e-05,
        "meta_mean_motion_ddot": 0,
        "tle_line1": "1 32221U 99025CVT 25359.13331338  .00001605  00000+0  30621-3 0  9990",
        "tle_line2": "2 32221  98.5667 149.4431 0147149 107.7631 253.9687 14.58742208973785"
      },
      "geometry": {
        "type": "Point",
        "coordinates": [
          -75.1693569825331,
          -78.12473722085619
        ]
      }
    },
    {
      "type": "Feature",
      "properties": {
        "norad_id": 32223,
        "name": "FENGYUN 1C DEB",
        "group": "fengyun-1c-debris",
        "lat": 68.39677543632645,
        "lon": -77.52416610347026,
        "alt_km": 848.1609577094132,
        "timestamp": "2025-12-26T06:43:29.797764+00:00",
        "meta_object_name": "FENGYUN 1C DEB",
        "meta_object_id": "1999-025CVV",
        "meta_epoch": "2025-12-24T12:01:45.645600",
        "meta_mean_motion": 14.2096102,
        "meta_eccentricity": 0.00465089,
        "meta_inclination": 98.8361,
        "meta_ra_of_asc_node": 77.5673,
        "meta_arg_of_pericenter": 283.0838,
        "meta_mean_anomaly": 91.5397,
        "meta_ephemeris_type": 0,
        "meta_classification_type": "U",
        "meta_norad_cat_id": 32223,
        "meta_element_set_no": 999,
        "meta_rev_at_epoch": 64391,
        "meta_bstar": 0.00146638,
        "meta_mean_motion_dot": 3.167e-05,
        "meta_mean_motion_ddot": 0,
        "tle_line1": "1 32223U 99025CVV 25358.50122275  .00003167  00000+0  14664-2 0  9993",
        "tle_line2": "2 32223  98.8361  77.5673 0046508 283.0838  91.5397 14.20961020643911"
      },
      "geometry": {
        "type": "Point",
        "coordinates": [
          -77.52416610347026,
          68.39677543632645
        ]
      }
    },
    {
      "type": "Feature",
      "properties": {
        "norad_id": 32224,
        "name": "FENGYUN 1C DEB",
        "group": "fengyun-1c-debris",
        "lat": 38.93512508951396,
        "lon": 139.15827413096662,
        "alt_km": 796.3888977166807,
        "timestamp": "2025-12-26T06:43:29.797774+00:00",
        "meta_object_name": "FENGYUN 1C DEB",
        "meta_object_id": "1999-025CVW",
        "meta_epoch": "2025-12-25T20:01:51.442752",
        "meta_mean_motion": 14.34047856,
        "meta_eccentricity": 0.00768345,
        "meta_inclination": 98.9858,
        "meta_ra_of_asc_node": 311.3508,
        "meta_arg_of_pericenter": 28.681,
        "meta_mean_anomaly": 331.8567,
        "meta_ephemeris_type": 0,
        "meta_classification_type": "U",
        "meta_norad_cat_id": 32224,
        "meta_element_set_no": 999,
        "meta_rev_at_epoch": 95911,
        "meta_bstar": 0.00036578669,
        "meta_mean_motion_dot": 1.009e-05,
        "meta_mean_motion_ddot": 0,
        "tle_line1": "1 32224U 99025CVW 25359.83462318  .00001009  00000+0  36579-3 0  9999",
        "tle_line2": "2 32224  98.9858 311.3508 0076834  28.6810 331.8567 14.34047856959116"
      },
      "geometry": {
        "type": "Point",
        "coordinates": [
          139.15827413096662,
          38.93512508951396
        ]
      }
    },
    {
      "type": "Feature",
      "properties": {
        "norad_id": 32225,
        "name": "FENGYUN 1C DEB",
        "group": "fengyun-1c-debris",
        "lat": 26.147671383121807,
        "lon": -126.33986301468128,
        "alt_km": 797.4765583274002,
        "timestamp": "2025-12-26T06:43:29.797784+00:00",
        "meta_object_name": "FENGYUN 1C DEB",
        "meta_object_id": "1999-025CVX",
        "meta_epoch": "2025-12-25T23:12:12.864384",
        "meta_mean_motion": 14.13056335,
        "meta_eccentricity": 0.00722675,
        "meta_inclination": 99.0905,
        "meta_ra_of_asc_node": 48.8339,
        "meta_arg_of_pericenter": 169.3756,
        "meta_mean_anomaly": 190.8962,
        "meta_ephemeris_type": 0,
        "meta_classification_type": "U",
        "meta_norad_cat_id": 32225,
        "meta_element_set_no": 999,
        "meta_rev_at_epoch": 68303,
        "meta_bstar": 0.00020116551,
        "meta_mean_motion_dot": 3.39e-06,
        "meta_mean_motion_ddot": 0,
        "tle_line1": "1 32225U 99025CVX 25359.96681556  .00000339  00000+0  20117-3 0  9997",
        "tle_line2": "2 32225  99.0905  48.8339 0072267 169.3756 190.8962 14.13056335683030"
      },
      "geometry": {
        "type": "Point",
        "coordinates": [
          -126.33986301468128,
          26.147671383121807
        ]
      }
    }
  ]
}